NORAD_CAT_ID,OBJECT_NAME,OBJECT_TYPE,EPOCH,MEAN_MOTION,ECCENTRICITY,INCLINATION,RA_OF_ASC_NODE,ARG_OF_PERICENTER,MEAN_ANOMALY,BSTAR,MEAN_MOTION_DOT,MEAN_MOTION_DDOT,TLE_LINE0,TLE_LINE1,TLE_LINE2,SEMIMAJOR_AXIS,PERIOD,APOGEE,PERIGEE,DECAYED
52284.0,STARLINK-3561,PAYLOAD,2024-02-17 05:10:24,15.08838497,0.000124,53.2164,232.6207,92.9302,267.1832,9.4926e-05,1.223e-05,0.0,0 STARLINK-3561,1 52284U 22041Z   24048.21555718  .00001223  00000-0  94926-4 0  9994,2 52284  53.2164 232.6207 0001240  92.9302 267.1832 15.08838497102272,6917.885,95.438,540.608,538.892,0.0
52284.0,STARLINK-3561,PAYLOAD,2024-02-17 21:04:15,15.08842911,0.0001206,53.2163,229.6467,89.5114,270.6016,7.5582e-05,9.15e-06,0.0,0 STARLINK-3561,1 52284U 22041Z   24048.87795510  .00000915  00000-0  75582-4 0  9996,2 52284  53.2163 229.6467 0001206  89.5114 270.6016 15.08842911101155,6917.871,95.437,540.571,538.902,0.0
52284.0,STARLINK-3561,PAYLOAD,2024-02-18 12:58:07,15.08837651,0.0001288,53.2164,226.6727,87.2006,272.9134,2.6481e-05,1.34e-06,0.0,0 STARLINK-3561,1 52284U 22041Z   24049.54036006  .00000134  00000-0  26481-4 0  9996,2 52284  53.2164 226.6727 0001288  87.2006 272.9134 15.08837651101259,6917.888,95.438,540.644,538.862,0.0
52284.0,STARLINK-3561,PAYLOAD,2024-02-18 19:19:39,15.08844395,0.0001228,53.2161,225.4835,90.3773,269.736,2.2527e-05,7.1e-07,0.0,0 STARLINK-3561,1 52284U 22041Z   24049.80531585  .00000071  00000-0  22527-4 0  9994,2 52284  53.2161 225.4835 0001228  90.3773 269.7360 15.08844395102511,6917.867,95.437,540.581,538.882,0.0
52284.0,STARLINK-3561,PAYLOAD,2024-02-18 20:55:02,15.08846702,0.0001172,53.2156,225.1846,92.4976,267.6151,4.063e-05,3.59e-06,0.0,0 STARLINK-3561,1 52284U 22041Z   24049.87155337  .00000359  00000-0  40630-4 0  9992,2 52284  53.2156 225.1846 0001172  92.4976 267.6151 15.08846702101305,6917.86,95.437,540.536,538.914,0.0
52284.0,STARLINK-3561,PAYLOAD,2024-02-19 04:51:58,15.08843112,0.0001242,53.2161,223.6991,89.3553,270.7582,1.1847e-05,-9.9e-07,0.0,0 STARLINK-3561,1 52284U 22041Z   24050.20275642 -.00000099  00000-0  11847-4 0  9993,2 52284  53.2161 223.6991 0001242  89.3553 270.7582 15.08843112101359,6917.871,95.437,540.595,538.877,0.0
52284.0,STARLINK-3561,PAYLOAD,2024-02-19 17:35:03,15.08838979,0.0001123,53.2156,221.3193,92.9865,267.1255,7.7088e-05,9.39e-06,0.0,0 STARLINK-3561,1 52284U 22041Z   24050.73267771  .00000939  00000-0  77088-4 0  9996,2 52284  53.2156 221.3193 0001123  92.9865 267.1255 15.08838979102652,6917.884,95.438,540.525,538.972,0.0
52284.0,STARLINK-3561,PAYLOAD,2024-02-20 14:15:04,15.08838758,9.96e-05,53.2156,217.4539,94.7216,265.389,1.8172e-05,1e-08,0.0,0 STARLINK-3561,1 52284U 22041Z   24051.59380016  .00000001  00000-0  18172-4 0  9998,2 52284  53.2156 217.4539 0000996  94.7216 265.3890 15.08838758101568,6917.884,95.438,540.438,539.06,0.0
52284.0,STARLINK-3561,PAYLOAD,2024-02-20 17:25:50,15.08838465,9.84e-05,53.2161,216.8605,77.3067,282.8035,2.0028e-05,3.1e-07,0.0,0 STARLINK-3561,1 52284U 22041Z   24051.72628079  .00000031  00000-0  20028-4 0  9993,2 52284  53.2161 216.8605 0000984  77.3067 282.8035 15.08838465101581,6917.885,95.438,540.431,539.069,0.0
52284.0,STARLINK-3561,PAYLOAD,2024-02-21 14:05:51,15.08840526,0.0001188,53.2168,212.9948,87.9922,272.1206,8.6903e-05,1.096e-05,0.0,0 STARLINK-3561,1 52284U 22041Z   24052.58739661  .00001096  00000-0  86903-4 0  9994,2 52284  53.2168 212.9948 0001188  87.9922 272.1206 15.08840526101717,6917.879,95.438,540.566,538.922,0.0
52284.0,STARLINK-3561,PAYLOAD,2024-02-21 17:16:37,15.08843853,0.000131,53.2161,212.4005,86.5451,273.5691,9.2033e-05,1.177e-05,0.0,0 STARLINK-3561,1 52284U 22041Z   24052.71987486  .00001177  00000-0  92033-4 0  9990,2 52284  53.2161 212.4005 0001310  86.5451 273.5691 15.08843853102954,6917.869,95.437,540.64,538.827,0.0
52284.0,STARLINK-3561,PAYLOAD,2024-02-22 10:45:52,15.08837646,0.0001365,53.2168,209.1291,86.0664,274.0484,5.7508e-05,6.27e-06,0.0,0 STARLINK-3561,1 52284U 22041Z   24053.44851955  .00000627  00000-0  57508-4 0  9999,2 52284  53.2168 209.1291 0001365  86.0664 274.0484 15.08837646103064,6917.888,95.438,540.697,538.808,0.0
52284.0,STARLINK-3561,PAYLOAD,2024-02-22 13:56:38,15.08834397,0.0001337,53.2165,208.5346,85.414,274.7005,3.0762e-05,2.02e-06,0.0,0 STARLINK-3561,1 52284U 22041Z   24053.58100287  .00000202  00000-0  30762-4 0  9991,2 52284  53.2165 208.5346 0001337  85.4140 274.7005 15.08834397101868,6917.898,95.438,540.687,538.838,0.0
52284.0,STARLINK-3561,PAYLOAD,2024-02-22 17:07:24,15.08829746,0.0001318,53.2161,207.9391,85.9505,274.1637,0.00014958,2.093e-05,0.0,0 STARLINK-3561,1 52284U 22041Z   24053.71348351  .00002093  00000-0  14958-3 0  9990,2 52284  53.2161 207.9391 0001318  85.9505 274.1637 15.08829746101885,6917.912,95.438,540.689,538.865,0.0
52284.0,STARLINK-3561,PAYLOAD,2024-02-23 13:47:26,15.08835292,0.0001283,53.217,204.0763,88.328,271.7859,-6.7232e-05,-1.358e-05,0.0,0 STARLINK-3561,1 52284U 22041Z   24054.57460862 -.00001358  00000-0 -67232-4 0  9996,2 52284  53.2170 204.0763 0001283  88.3280 271.7859 15.08835292102012,6917.895,95.438,540.647,538.872,0.0
52284.0,STARLINK-3561,PAYLOAD,2024-02-23 20:08:58,15.08841123,0.000125,53.2157,202.8839,81.834,278.2794,-1.2705e-05,-4.9e-06,0.0,0 STARLINK-3561,1 52284U 22041Z   24054.83956329 -.00000490  00000-0 -12705-4 0  9994,2 52284  53.2157 202.8839 0001250  81.8340 278.2794 15.08841123103275,6917.877,95.437,540.607,538.877,0.0
52284.0,STARLINK-3561,PAYLOAD,2024-02-24 13:38:12,15.08827364,0.0001232,53.2159,199.6126,83.6885,276.4248,0.00022441,3.284e-05,0.0,0 STARLINK-3561,1 52284U 22041Z   24055.56820585  .00003284  00000-0  22441-3 0  9998,2 52284  53.2159 199.6126 0001232  83.6885 276.4248 15.08827364102165,6917.919,95.438,540.636,538.932,0.0
52284.0,STARLINK-3561,PAYLOAD,2024-02-24 16:48:58,15.08844277,0.0001213,53.2156,199.0184,87.9814,272.1317,0.00012604,1.719e-05,0.0,0 STARLINK-3561,1 52284U 22041Z   24055.70067887  .00001719  00000-0  12604-3 0  9993,2 52284  53.2156 199.0184 0001213  87.9814 272.1317 15.08844277102182,6917.867,95.437,540.571,538.893,0.0
52284.0,STARLINK-3561,PAYLOAD,2024-02-25 13:28:59,15.08842996,0.0001205,53.2158,195.1535,98.0393,262.0736,7.4415e-05,8.97e-06,0.0,0 STARLINK-3561,1 52284U 22041Z   24056.56180127  .00000897  00000-0  74415-4 0  9996,2 52284  53.2158 195.1535 0001205  98.0393 262.0736 15.08842996102311,6917.871,95.437,540.57,538.903,0.0
52284.0,STARLINK-3561,PAYLOAD,2024-02-25 18:15:08,15.08851821,0.0001299,53.2151,194.263,109.7077,250.4055,0.00010926,1.452e-05,0.0,0 STARLINK-3561,1 52284U 22041Z   24056.76051420  .00001452  00000-0  10926-3 0  9995,2 52284  53.2151 194.2630 0001299 109.7077 250.4055 15.08851821103562,6917.844,95.437,540.608,538.811,0.0
52284.0,STARLINK-3561,PAYLOAD,2024-02-26 02:12:05,15.0883643,0.0001459,53.2165,192.7732,76.367,283.7485,8.3036e-07,-2.75e-06,0.0,0 STARLINK-3561,1 52284U 22041Z   24057.09172857 -.00000275  00000-0  83036-6 0  9998,2 52284  53.2165 192.7732 0001459  76.3670 283.7485 15.08836430103610,6917.891,95.438,540.766,538.747,0.0
52284.0,STARLINK-3561,PAYLOAD,2024-02-26 14:55:11,15.08826859,0.0001599,53.2169,190.3986,88.2673,271.8502,-9.7543e-05,-1.84e-05,0.0,0 STARLINK-3561,1 52284U 22041Z   24057.62166127 -.00001840  00000-0 -97543-4 0  9996,2 52284  53.2169 190.3986 0001599  88.2673 271.8502 15.08826859102474,6917.921,95.438,540.892,538.679,0.0
52284.0,STARLINK-3561,PAYLOAD,2024-02-26 18:05:56,15.08837442,0.0001235,53.2155,189.8032,114.9909,245.1211,5.5316e-06,-2e-06,0.0,0 STARLINK-3561,1 52284U 22041Z   24057.75413020 -.00000200  00000-0  55316-5 0  9998,2 52284  53.2155 189.8032 0001235 114.9909 245.1211 15.08837442102493,6917.888,95.438,540.608,538.899,0.0
52284.0,STARLINK-3561,PAYLOAD,2024-02-27 08:24:25,15.08843699,0.0001079,53.216,187.1229,104.3059,255.8053,-4.4298e-05,-9.93e-06,0.0,0 STARLINK-3561,1 52284U 22041Z   24058.35028963 -.00000993  00000-0 -44298-4 0  9999,2 52284  53.2160 187.1229 0001079 104.3059 255.8053 15.08843699103802,6917.869,95.437,540.481,538.988,0.0
52284.0,STARLINK-3561,PAYLOAD,2024-02-27 14:45:57,15.0884847,0.000114,53.2158,185.9362,87.002,273.1102,1.2382e-05,-9.1e-07,0.0,0 STARLINK-3561,1 52284U 22041Z   24058.61524507 -.00000091  00000-0  12382-4 0  9990,2 52284  53.2158 185.9362 0001140  87.0020 273.1102 15.08848470102626,6917.854,95.437,540.508,538.931,0.0
52284.0,STARLINK-3561,PAYLOAD,2024-02-27 17:56:42,15.08858312,0.0001278,53.2162,185.3389,84.0481,276.0657,0.00010212,1.338e-05,0.0,0 STARLINK-3561,1 52284U 22041Z   24058.74771639  .00001338  00000-0  10212-3 0  9997,2 52284  53.2162 185.3389 0001278  84.0481 276.0657 15.08858312103864,6917.824,95.436,540.574,538.805,0.0
52284.0,STARLINK-3561,PAYLOAD,2024-02-28 01:53:39,15.08846744,9.34e-05,53.2173,183.8533,79.5795,280.5303,-4.0439e-06,-3.52e-06,0.0,0 STARLINK-3561,1 52284U 22041Z   24059.07892366 -.00000352  00000-0 -40439-5 0  9998,2 52284  53.2173 183.8533 0000934  79.5795 280.5303 15.08846744103915,6917.86,95.437,540.371,539.079,0.0
52284.0,STARLINK-3561,PAYLOAD,2024-02-28 11:25:58,15.08831705,0.0001468,53.2173,182.0686,80.6444,279.4715,0.00018187,2.607e-05,0.0,0 STARLINK-3561,1 52284U 22041Z   24059.47637386  .00002607  00000-0  18187-3 0  9997,2 52284  53.2173 182.0686 0001468  80.6444 279.4715 15.08831705103973,6917.906,95.438,540.786,538.755,0.0
52284.0,STARLINK-3561,PAYLOAD,2024-02-28 14:36:44,15.08834403,0.0001517,53.2173,181.4727,85.7811,274.3355,0.00020465,2.97e-05,0.0,0 STARLINK-3561,1 52284U 22041Z   24059.60885353  .00002970  00000-0  20465-3 0  9996,2 52284  53.2173 181.4727 0001517  85.7811 274.3355 15.08834403102770,6917.897,95.438,540.812,538.713,0.0
52284.0,STARLINK-3561,PAYLOAD,2024-02-29 11:16:45,15.08849655,0.0001399,53.2173,177.6082,84.3446,275.7705,2.6656e-05,1.36e-06,0.0,0 STARLINK-3561,1 52284U 22041Z   24060.46996690  .00000136  00000-0  26656-4 0  9990,2 52284  53.2173 177.6082 0001399  84.3446 275.7705 15.08849655104128,6917.851,95.437,540.684,538.748,0.0
